#dP2022  2  2 12  0  0.00000000      96 __u+U ITR00 EXT  IAC
## 2195 302400.00000000   900.00000000 59612 0.5000000000000
+  113   C06C07C08C09C10C11C12C13C14C16C19C20C21C22C23C24C25
+        C26C27C28C29C30C32C33C34C35C36C37C38C39C40C41C42C43
+        C44C45C46E01E02E03E04E05E07E08E09E11E12E13E14E15E18
+        E19E21E24E25E26E27E30E31E33E36G01G02G03G04G05G06G07
+        G08G09G10G11G12G13G14G15G16G17G18G19G20G21G22G23G24
+        G25G26G27G28G29G30G31G32R01R02R03R04R05R07R08R09R11
+        R12R13R14R15R17R18R19R20R21R22R24  0  0  0  0  0  0
++         9 12  8  9 12 10  6  9 11  9  9  9  9  9 10  7 10
++        10 10  9  8  8  9 10  8  9  9 10  9 12 12  9  9  8
++         8 10  8  7  7  8  9 10  8  7  8  9  9  8  9  7  8
++         8  7  8  8  8 10  9  9  8  8  8  7  7  8  8  7  8
++         7  7  7  7  6  7  8  8  9  7  7  8  8  7  9  7  9
++         7  9  8  8  9  8  8 14 10  8  7  9  8 10  9  9  9
++         8  7  9  8  9  8  8  8  7  9 10  0  0  0  0  0  0
%c M  cc GPS ccc cccc cccc cccc cccc ccccc ccccc ccccc ccccc
%c cc cc ccc ccc cccc cccc cccc cccc ccccc ccccc ccccc ccccc
%f  0.0000000  0.000000000  0.00000000000  0.000000000000000
%f  0.0000000  0.000000000  0.00000000000  0.000000000000000
%i    0    0    0    0      0      0      0      0         0
%i    0    0    0    0      0      0      0      0         0
/* IAC                                ULTRA-RAPID PREDICTION
/* S/V CLOCKS ARE ALIGNED TO GNSS TIME                      
/* G:C1WC2W R:C1PC2P E:C1XC5X C:C2IC6I J:C1CC2S             
/* PCV:IGS14_2194 OL/AL:FES2004  NONE     YN ORB:CoN CLK:CoN
*  2022 02 03  1 15  0.00000000
PC06  -5334.144224  24538.223819  33880.216250    -15.717991
PC07 -17727.598794  34127.017185 -17421.528800     -5.732546
PC08  -4132.982053  39249.320545 -14592.815800    106.537713
PC09   4459.675692  27996.524471  31677.147808   -489.302164
PC10 -11443.843210  34056.511860 -22158.721463    139.853730
PC11  11071.983327 -11389.214329  23010.184384   -231.828246
PC12  24342.635702   1682.429405  13572.894164   -435.783780
PC13    549.425389  41251.778916  -7871.858944   -128.068161
PC14  18498.991625 -19515.450895  -7342.936356    459.612874
PC16  -7068.618825  23326.922596  34560.585429     72.730420
PC19 -10456.453684  20683.800835  15578.838956    902.181212
PC20 -22782.368239  16136.451870   -230.433532   -815.437388
PC21  22152.068129  -1523.218724  16910.657668   -961.345391
PC22   8367.040360  13455.412531  22974.084625   -957.984236
PC23  -9362.675481 -24352.225658   9911.807803   -969.143291
PC24  13750.056218 -12805.609593 -20658.603257   -943.871516
PC25   1865.638875 -26984.611364  -6925.251841   -785.118381
PC26  16376.517848   6440.803378 -21663.961282    784.599457
PC27 -26099.382995  -8306.496758  -5310.207657    671.338098
PC28 -18008.152431 -17663.556178  11941.754101     28.232602
PC29   -319.862082  16710.426108 -22352.356480    509.945787
PC30 -19338.977418   6159.875600 -19143.900815    492.537089
PC32 -22130.950920   1677.530093 -16902.844090   -962.058880
PC33  10413.123973 -20746.610211 -15475.049261   -955.530699
PC34  18670.560109  -6805.013375  19595.742786   -477.664806
PC35  18055.017423  17249.257022 -12502.466495    122.030091
PC36  -2828.023276  26762.489171   7380.732420   -889.273209
PC37 -16097.319508  -8123.868071  21312.399278   -961.761601
PC38  -8317.601363  36362.186920 -19459.833353    208.683544
PC39 -12446.701851  20916.097199  34421.675668     34.741712
PC40 -24439.277846  29810.505019 -17262.671579    241.098415
PC41  -8019.893445 -13713.140336 -22892.274763   -931.334224
PC42  23116.912940 -15574.057784   1248.896006   -929.807019
PC43   1179.999664 -16582.430771  22405.317780   -944.108179
PC44  26407.067276   7543.971774   5053.042455    552.265704
PC45   9465.600292  24190.238101 -10164.581103    670.418780
PC46 -13100.271391  14146.362322  20154.261189   -148.120841
PE01  10140.045914  15668.509677 -22973.972743   -571.669864
PE02 -10215.743215 -15562.746424  23013.463988    277.742324
PE03 -20891.671938 -10490.606337 -18165.475151   -523.713380
PE04  29472.200873  -2089.132035   1834.469010   -956.358443
PE05    144.219764 -17146.147262 -24128.725371   -212.684011
PE07 -20800.434037  13733.326650  15972.975926   -635.041766
PE08 -29463.862685   2498.465485  -1434.036690   5861.724125
PE09  20562.671941 -13806.940925 -16202.004426   5373.481445
PE11   9306.924811 -14014.735017  24350.430074   4540.001665
PE12  20850.400799   5870.685312  20188.042172   4778.630434
PE13  -9707.116551  13447.110913 -24508.562743    426.212582
PE14   7292.244817  19365.177139 -22593.581765  -1732.253878
PE15 -20841.755592  -5981.119004 -20134.166133    765.593022
PE18 -20975.257437 -11893.369830  11757.872406  -1837.928513
PE19  18734.709756  11695.644064  19714.238795    493.217905
PE21  -3559.512633  27167.079287 -11189.447044   -714.923257
PE24  16655.938518 -22858.195044  -8804.377658  -1369.607576
PE25   3762.837862 -27245.526913  10961.223415   -562.348985
PE26   7737.328278  25149.157218 -13549.264526   -760.926475
PE27 -16013.512414  23668.715120   7677.564401   -223.675181
PE30 -18813.274973   4972.934860  22284.923614   -242.990977
PE31  18942.373498  -6295.681670 -21857.841021   -491.636322
PE33  19650.737335  21794.860083   3927.038337   -459.789516
PE36  -7039.010237 -24843.590249  14471.748928   -326.910547
PG01  17461.807357   6319.035929  18846.221811    441.192192
PG02 -14928.863741 -21829.329502   -875.501934   -650.098280
PG03  18050.006586  -5201.890785  18632.100605   -104.387539
PG04  26560.737465    534.441106  -1436.443055   -191.753216
PG05 -11203.391487 -10974.188484 -21580.732641    -70.091510
PG06  -3332.758786 -23293.185658  12318.325320    189.635681
PG07  11297.539542 -10754.348872 -21064.870015    307.300088
PG08  24160.764266   6580.545054  -9384.299870    -54.636607
PG09  22339.000804  -8279.494042 -11846.575360   -355.725528
PG10 -10885.302727  23680.889873   4353.702414   -310.008915
PG11 -12350.270804 -23473.448800  -1542.194790   -103.958702
PG12 -17463.221888   1312.029901  19663.119169   -165.245002
PG13 -18088.889633 -13078.583855 -14668.629566    255.440312
PG14  12361.701566 -23184.671765   3628.284289    -79.109427
PG15 -24878.480883  -4334.523563  -9141.281643    -86.770087
PG16   7116.676884  14686.318274 -21122.030384   -464.362686
PG17   9636.674465 -13454.814111  21221.754606    569.950764
PG18 -10749.996649  11254.927393 -21510.894198    248.232174
PG19    515.514605 -14736.084705  21837.862245    113.858811
PG20  -5087.963141 -19919.247232 -16954.979042    516.878495
PG21  19625.537986  13947.562928  12556.921123    157.353749
PG22   3289.169567  15568.084144  21687.155071    207.853345
PG23 -16666.164455  19401.528865  -6990.517735      4.973761
PG24 -19576.074230  -9396.077394  15270.214803    276.095700
PG25 -18566.698837  13887.428381  12414.826608    280.028970
PG26  -1600.325338  22990.096017 -13009.036966    179.921923
PG27  15851.909972  12406.488581 -17720.150174    101.509381
PG28   6895.296687 -23042.615486  12036.148680    408.741778
PG29 -24378.648986   4174.940533  -9801.978240   -475.371160
PG30   4669.660110 -19142.313317 -17627.420372   -510.948974
PG31   4610.309695  23978.834977   9727.192193   -162.928422
PG32  -4390.789944  15062.816172  21537.156489    -60.991674
PR01 -21516.688998  12969.034308   4449.129991      7.079174
PR02  -6686.522909  13649.605163  20506.447564    508.485903
PR03  11146.807119   6372.602465  22094.330858     50.908789
PR04  22394.578692  -4408.597886  11429.365497    126.116304
PR05  21448.179219 -12652.177829  -5583.035040     87.033898
PR07 -11695.322708  -5979.746015 -21818.501998     31.282810
PR08 -22422.586957   4526.567288 -11202.288351    -63.393718
PR09   1486.130382 -25421.494696    598.904220     37.433787
PR11 -10848.542875  -1332.569502  23053.022088     46.227463
PR12  -9154.908700  17616.985058  16019.217795     17.064547
PR13  -2092.847859  25413.050945    518.160211    -17.813295
PR14   6571.028773  18266.733942 -16547.640266     73.925456
PR15  11013.812519    650.435672 -22985.270261     98.461280
PR17  18543.189883  16449.503062  -5934.012312    498.204766
PR18  21191.015672   9249.521330  10855.847682    105.953501
PR19  13515.791846  -1747.323873  21567.523829   -176.768001
PR20  -4299.159139 -14665.132576  20421.557513    -64.223447
PR21 -19156.155805 -16237.139287   4549.175412   -275.016708
PR22 -20855.856435  -8738.001297 -11711.006111   -162.207074
PR24   5076.021701  15180.536930 -19835.919194     78.470540
EOF
